HERMES-2                
1 63243U 25052AK  26068.92847372  .00009456  00000+0  34839-3 0  9999
2 63243  97.4004 324.4926 0006340  99.4160 260.7796 15.28021069 54859
STARLINK-33870          
1 63794U 25091V   26068.93890431  .00031163  00000+0  11366-2 0  9997
2 63794  43.0044  50.8273 0001415 234.1919 125.8801 15.27598284 48942
